OBJECT_NAME,OBJECT_ID,EPOCH,MEAN_MOTION,ECCENTRICITY,INCLINATION,RA_OF_ASC_NODE,ARG_OF_PERICENTER,MEAN_ANOMALY,EPHEMERIS_TYPE,CLASSIFICATION_TYPE,NORAD_CAT_ID,ELEMENT_SET_NO,REV_AT_EPOCH,BSTAR,MEAN_MOTION_DOT,MEAN_MOTION_DDOT
STARLINK-36661,2026-033L,2026-07-17T10:41:20.781888,15.27576665,.0001242,42.9986,254.6891,271.8770,88.1940,0,U,67831,999,2451,.10976E-3,.2759E-4,0
STARLINK-36662,2026-033M,2026-07-17T14:42:36.654336,15.27590178,.0002095,43.0006,246.2988,280.5215,79.5401,0,U,67832,999,2462,.27548E-3,.7328E-4,0
STARLINK-36659,2026-033N,2026-07-17T04:55:56.583264,15.27591651,.00037345,42.9905,255.4348,150.1880,209.9185,0,U,67833,999,2448,.28012487E-3,.7457E-4,0
STARLINK-36655,2026-033P,2026-07-17T12:26:23.396640,15.27583285,.0001458,42.9984,253.4984,287.3323,72.7369,0,U,67834,999,2453,.12463E-3,.3169E-4,0
STARLINK-36657,2026-033Q,2026-07-17T11:01:28.583904,15.27570616,.0001477,42.9998,253.9106,279.5338,80.5347,0,U,67835,999,2452,-.45903E-4,-.1525E-4,0
STARLINK-36650,2026-033R,2026-07-17T11:49:35.543136,15.27586045,.0001727,43.0007,254.1767,267.3901,92.6753,0,U,67836,999,2452,.21133E-3,.5559E-4,0
STARLINK-36649,2026-033S,2026-07-17T15:12:44.398080,15.27576841,.0001676,42.9996,253.5142,282.6493,77.4171,0,U,67837,999,2454,.42847E-3,.11546E-3,0
STARLINK-36654,2026-033T,2026-07-17T11:44:02.599008,15.27580998,.0001321,43.0029,254.1471,274.7317,85.3384,0,U,67838,999,2452,.18146E-3,.4735E-4,0
STARLINK-36652,2026-033U,2026-07-17T14:46:48.149184,15.27585775,.0002409,43.0037,253.3822,284.7537,75.3048,0,U,67839,999,2454,.27685E-3,.7365E-4,0
STARLINK-36651,2026-033V,2026-07-17T11:32:56.202720,15.27584186,.0001726,43.0039,254.0871,272.0914,87.9740,0,U,67840,999,2452,.18814E-3,.4919E-4,0
STARLINK-36656,2026-033W,2026-07-17T05:07:03.110016,15.27586235,.00013816,43.0020,255.5122,250.2899,109.7804,0,U,67841,999,2448,.10351776E-3,.2588E-4,0
STARLINK-36653,2026-033X,2026-07-17T11:18:07.977024,15.27581953,.0001219,43.0011,254.0056,233.2294,126.8446,0,U,67842,999,2452,.12543E-3,.3191E-4,0
STARLINK-36589,2026-033Y,2026-07-17T11:07:00.804000,15.27584080,.0000288,43.0012,253.9455,235.6272,124.4553,0,U,67843,999,2452,-.62251E-4,-.1974E-4,0
STARLINK-36598,2026-033Z,2026-07-17T12:11:46.816800,15.27606945,.0001571,42.9987,254.2933,274.7750,85.2922,0,U,67844,999,2452,.38733E-3,.1042E-3,0
STARLINK-36606,2026-033AA,2026-07-16T13:05:07.827072,15.27578872,.0001552,43.0002,259.0888,275.8020,84.2655,0,U,67845,999,2438,-.64321E-4,-.2032E-4,0
STARLINK-36658,2026-033AB,2026-07-17T13:34:51.297600,15.27581427,.0001459,42.9989,253.8661,279.6314,80.4372,0,U,67846,999,2453,.27455E-3,.7301E-4,0
STARLINK-36618,2026-033AC,2026-07-17T10:43:49.846080,15.27582861,.0002157,43.0000,239.6384,276.0209,84.0397,0,U,67847,999,2468,.13554E-3,.347E-4,0
STARLINK-36660,2026-033AD,2026-07-17T13:31:09.446592,15.27571077,.0002008,43.0007,253.8454,280.2295,79.8330,0,U,67848,999,2453,.35092E-3,.9404E-4,0
STARLINK-36602,2026-033AE,2026-07-17T10:43:11.761824,15.27577433,.0000984,43.0015,254.6942,268.0604,92.0134,0,U,67849,999,2451,.13924E-3,.3571E-4,0
STARLINK-36840,2026-034A,2026-07-16T18:36:14.663808,15.30190291,.00008658,53.1595,324.3648,62.8024,297.3065,0,U,67850,999,2380,.29471604E-3,.8377E-4,0
STARLINK-36348,2026-034B,2026-07-17T16:00:03.000096,15.34381974,.0001068,53.1603,320.5879,74.8704,338.7156,0,U,67851,999,583,.19178E-4,.272E-5,0
STARLINK-36276,2026-034C,2026-07-16T15:05:30.822144,15.30208497,.0000837,53.1612,325.5922,56.9704,303.1377,0,U,67852,999,2377,.36372E-3,.10431E-3,0
STARLINK-36785,2026-034D,2026-07-17T17:04:45.516288,15.34398256,.0001698,53.1595,320.2351,61.5320,298.5854,0,U,67853,999,2394,.35418E-3,.11608E-3,0
STARLINK-36608,2026-034E,2026-07-17T15:18:41.567040,15.30194989,.0000855,53.1590,320.4797,77.6945,282.4151,0,U,67854,999,2392,.1974E-3,.5491E-4,0
STARLINK-36838,2026-034F,2026-07-17T17:20:45.225024,15.31687370,.000251,53.1619,319.5940,64.6216,295.5045,0,U,67855,999,2395,.91835E-3,.2823E-3,0
STARLINK-36843,2026-034G,2026-07-17T14:19:33.359232,15.31712036,.0001449,53.1623,320.2488,61.4130,298.7018,0,U,67856,999,2393,.30415E-3,.9088E-4,0
STARLINK-36828,2026-034H,2026-07-17T17:20:15.892224,15.31704977,.0001505,53.1581,319.5896,69.2916,290.8246,0,U,67857,999,2395,.20867E-3,.6117E-4,0
STARLINK-36837,2026-034J,2026-07-17T14:23:45.252384,15.34401971,.0001058,53.1604,317.4296,76.3408,283.7712,0,U,67858,999,2397,.28569E-3,.9289E-4,0
STARLINK-36393,2026-034K,2026-07-17T16:06:19.692000,15.31712429,.0000853,53.1598,319.2660,111.1098,248.9994,0,U,67859,999,2395,.29437E-3,.8784E-4,0
STARLINK-35873,2026-034L,2026-07-17T17:10:48.692640,15.34405116,.0000768,53.1623,320.2605,148.0117,212.0932,0,U,67860,999,2397,.36221E-3,.11883E-3,0
